{"type": "FeatureCollection", "features": [{"type": "Feature", "geometry": {"type": "Point", "coordinates": [9.73546, 48.33313]}, "properties": {"bright_ti4": "305.03", "scan": "0.38", "track": "0.36", "acq_date": "2026-07-27", "acq_time": "130", "satellite": "N20", "instrument": "VIIRS", "confidence": "n", "version": "2.0NRT", "bright_ti5": "289.57", "frp": "1.19", "daynight": "N"}}, {"type": "Feature", "geometry": {"type": "Point", "coordinates": [2.20336, 48.66072]}, "properties": {"bright_ti4": "326.96", "scan": "0.39", "track": "0.44", "acq_date": "2026-07-27", "acq_time": "130", "satellite": "N20", "instrument": "VIIRS", "confidence": "n", "version": "2.0NRT", "bright_ti5": "285.86", "frp": "2.5", "daynight": "N"}}, {"type": "Feature", "geometry": {"type": "Point", "coordinates": [1.75928, 48.98392]}, "properties": {"bright_ti4": "299.59", "scan": "0.41", "track": "0.45", "acq_date": "2026-07-27", "acq_time": "130", "satellite": "N20", "instrument": "VIIRS", "confidence": "n", "version": "2.0NRT", "bright_ti5": "287.33", "frp": "0.51", "daynight": "N"}}, {"type": "Feature", "geometry": {"type": "Point", "coordinates": [6.85618, 49.24423]}, "properties": {"bright_ti4": "299.47", "scan": "0.42", "track": "0.37", "acq_date": "2026-07-27", "acq_time": "130", "satellite": "N20", "instrument": "VIIRS", "confidence": "n", "version": "2.0NRT", "bright_ti5": "289.04", "frp": "0.76", "daynight": "N"}}, {"type": "Feature", "geometry": {"type": "Point", "coordinates": [6.85262, 49.24732]}, "properties": {"bright_ti4": "300.8", "scan": "0.42", "track": "0.37", "acq_date": "2026-07-27", "acq_time": "130", "satellite": "N20", "instrument": "VIIRS", "confidence": "n", "version": "2.0NRT", "bright_ti5": "288.37", "frp": "0.7", "daynight": "N"}}, {"type": "Feature", "geometry": {"type": "Point", "coordinates": [6.14889, 49.31708]}, "properties": {"bright_ti4": "299.77", "scan": "0.43", "track": "0.38", "acq_date": "2026-07-27", "acq_time": "130", "satellite": "N20", "instrument": "VIIRS", "confidence": "n", "version": "2.0NRT", "bright_ti5": "288.33", "frp": "0.74", "daynight": "N"}}, {"type": "Feature", "geometry": {"type": "Point", "coordinates": [6.02944, 49.34644]}, "properties": {"bright_ti4": "296.31", "scan": "0.44", "track": "0.38", "acq_date": "2026-07-27", "acq_time": "130", "satellite": "N20", "instrument": "VIIRS", "confidence": "n", "version": "2.0NRT", "bright_ti5": "285.76", "frp": "0.37", "daynight": "N"}}, {"type": "Feature", "geometry": {"type": "Point", "coordinates": [6.02837, 49.3465]}, "properties": {"bright_ti4": "298.55", "scan": "0.44", "track": "0.38", "acq_date": "2026-07-27", "acq_time": "130", "satellite": "N20", "instrument": "VIIRS", "confidence": "n", "version": "2.0NRT", "bright_ti5": "286.24", "frp": "0.25", "daynight": "N"}}, {"type": "Feature", "geometry": {"type": "Point", "coordinates": [6.00842, 49.46441]}, "properties": {"bright_ti4": "299.59", "scan": "0.44", "track": "0.38", "acq_date": "2026-07-27", "acq_time": "130", "satellite": "N20", "instrument": "VIIRS", "confidence": "n", "version": "2.0NRT", "bright_ti5": "286.5", "frp": "0.92", "daynight": "N"}}, {"type": "Feature", "geometry": {"type": "Point", "coordinates": [6.00247, 49.46512]}, "properties": {"bright_ti4": "297.37", "scan": "0.44", "track": "0.38", "acq_date": "2026-07-27", "acq_time": "130", "satellite": "N20", "instrument": "VIIRS", "confidence": "n", "version": "2.0NRT", "bright_ti5": "285.37", "frp": "0.77", "daynight": "N"}}, {"type": "Feature", "geometry": {"type": "Point", "coordinates": [5.95566, 49.49972]}, "properties": {"bright_ti4": "296.07", "scan": "0.44", "track": "0.38", "acq_date": "2026-07-27", "acq_time": "130", "satellite": "N20", "instrument": "VIIRS", "confidence": "n", "version": "2.0NRT", "bright_ti5": "284.93", "frp": "0.89", "daynight": "N"}}, {"type": "Feature", "geometry": {"type": "Point", "coordinates": [5.95768, 49.50672]}, "properties": {"bright_ti4": "322.02", "scan": "0.44", "track": "0.38", "acq_date": "2026-07-27", "acq_time": "130", "satellite": "N20", "instrument": "VIIRS", "confidence": "n", "version": "2.0NRT", "bright_ti5": "286.95", "frp": "1.88", "daynight": "N"}}, {"type": "Feature", "geometry": {"type": "Point", "coordinates": [9.76926, 49.95515]}, "properties": {"bright_ti4": "307.46", "scan": "0.39", "track": "0.36", "acq_date": "2026-07-27", "acq_time": "130", "satellite": "N20", "instrument": "VIIRS", "confidence": "n", "version": "2.0NRT", "bright_ti5": "289.12", "frp": "0.87", "daynight": "N"}}, {"type": "Feature", "geometry": {"type": "Point", "coordinates": [-1.36665, 50.83158]}, "properties": {"bright_ti4": "299.93", "scan": "0.59", "track": "0.53", "acq_date": "2026-07-27", "acq_time": "130", "satellite": "N20", "instrument": "VIIRS", "confidence": "n", "version": "2.0NRT", "bright_ti5": "288", "frp": "1.76", "daynight": "N"}}, {"type": "Feature", "geometry": {"type": "Point", "coordinates": [6.70965, 51.3662]}, "properties": {"bright_ti4": "334.2", "scan": "0.44", "track": "0.38", "acq_date": "2026-07-27", "acq_time": "130", "satellite": "N20", "instrument": "VIIRS", "confidence": "n", "version": "2.0NRT", "bright_ti5": "285.86", "frp": "4.26", "daynight": "N"}}, {"type": "Feature", "geometry": {"type": "Point", "coordinates": [6.74417, 51.4959]}, "properties": {"bright_ti4": "307.9", "scan": "0.44", "track": "0.38", "acq_date": "2026-07-27", "acq_time": "130", "satellite": "N20", "instrument": "VIIRS", "confidence": "n", "version": "2.0NRT", "bright_ti5": "283.95", "frp": "1.99", "daynight": "N"}}, {"type": "Feature", "geometry": {"type": "Point", "coordinates": [1.66393, 41.31297]}, "properties": {"bright_ti4": "303.69", "scan": "0.51", "track": "0.41", "acq_date": "2026-07-27", "acq_time": "132", "satellite": "N20", "instrument": "VIIRS", "confidence": "n", "version": "2.0NRT", "bright_ti5": "292.29", "frp": "0.91", "daynight": "N"}}, {"type": "Feature", "geometry": {"type": "Point", "coordinates": [2.825, 41.90602]}, "properties": {"bright_ti4": "310.45", "scan": "0.47", "track": "0.39", "acq_date": "2026-07-27", "acq_time": "132", "satellite": "N20", "instrument": "VIIRS", "confidence": "n", "version": "2.0NRT", "bright_ti5": "289.34", "frp": "1.38", "daynight": "N"}}, {"type": "Feature", "geometry": {"type": "Point", "coordinates": [2.81935, 41.9067]}, "properties": {"bright_ti4": "310.3", "scan": "0.47", "track": "0.39", "acq_date": "2026-07-27", "acq_time": "132", "satellite": "N20", "instrument": "VIIRS", "confidence": "n", "version": "2.0NRT", "bright_ti5": "289.17", "frp": "1.46", "daynight": "N"}}, {"type": "Feature", "geometry": {"type": "Point", "coordinates": [9.06204, 42.25634]}, "properties": {"bright_ti4": "344.87", "scan": "0.4", "track": "0.37", "acq_date": "2026-07-27", "acq_time": "132", "satellite": "N20", "instrument": "VIIRS", "confidence": "n", "version": "2.0NRT", "bright_ti5": "291.62", "frp": "6.31", "daynight": "N"}}, {"type": "Feature", "geometry": {"type": "Point", "coordinates": [9.09052, 42.26527]}, "properties": {"bright_ti4": "311.33", "scan": "0.4", "track": "0.37", "acq_date": "2026-07-27", "acq_time": "132", "satellite": "N20", "instrument": "VIIRS", "confidence": "n", "version": "2.0NRT", "bright_ti5": "290.79", "frp": "1.1", "daynight": "N"}}, {"type": "Feature", "geometry": {"type": "Point", "coordinates": [9.08561, 42.26612]}, "properties": {"bright_ti4": "302.98", "scan": "0.4", "track": "0.37", "acq_date": "2026-07-27", "acq_time": "132", "satellite": "N20", "instrument": "VIIRS", "confidence": "n", "version": "2.0NRT", "bright_ti5": "290.52", "frp": "0.94", "daynight": "N"}}, {"type": "Feature", "geometry": {"type": "Point", "coordinates": [2.26439, 42.49144]}, "properties": {"bright_ti4": "314.12", "scan": "0.5", "track": "0.41", "acq_date": "2026-07-27", "acq_time": "132", "satellite": "N20", "instrument": "VIIRS", "confidence": "n", "version": "2.0NRT", "bright_ti5": "281.9", "frp": "1.81", "daynight": "N"}}, {"type": "Feature", "geometry": {"type": "Point", "coordinates": [5.01221, 43.388]}, "properties": {"bright_ti4": "306.65", "scan": "0.41", "track": "0.37", "acq_date": "2026-07-27", "acq_time": "132", "satellite": "N20", "instrument": "VIIRS", "confidence": "n", "version": "2.0NRT", "bright_ti5": "291.46", "frp": "0.86", "daynight": "N"}}, {"type": "Feature", "geometry": {"type": "Point", "coordinates": [4.90287, 43.4133]}, "properties": {"bright_ti4": "319.53", "scan": "0.42", "track": "0.37", "acq_date": "2026-07-27", "acq_time": "132", "satellite": "N20", "instrument": "VIIRS", "confidence": "n", "version": "2.0NRT", "bright_ti5": "291.68", "frp": "1.47", "daynight": "N"}}, {"type": "Feature", "geometry": {"type": "Point", "coordinates": [4.89454, 43.43492]}, "properties": {"bright_ti4": "302.92", "scan": "0.42", "track": "0.37", "acq_date": "2026-07-27", "acq_time": "132", "satellite": "N20", "instrument": "VIIRS", "confidence": "n", "version": "2.0NRT", "bright_ti5": "291.18", "frp": "1.69", "daynight": "N"}}, {"type": "Feature", "geometry": {"type": "Point", "coordinates": [4.88943, 43.43559]}, "properties": {"bright_ti4": "340.21", "scan": "0.42", "track": "0.37", "acq_date": "2026-07-27", "acq_time": "132", "satellite": "N20", "instrument": "VIIRS", "confidence": "n", "version": "2.0NRT", "bright_ti5": "294.28", "frp": "1.69", "daynight": "N"}}, {"type": "Feature", "geometry": {"type": "Point", "coordinates": [4.89029, 43.43901]}, "properties": {"bright_ti4": "303.51", "scan": "0.42", "track": "0.37", "acq_date": "2026-07-27", "acq_time": "132", "satellite": "N20", "instrument": "VIIRS", "confidence": "n", "version": "2.0NRT", "bright_ti5": "290.95", "frp": "1.69", "daynight": "N"}}, {"type": "Feature", "geometry": {"type": "Point", "coordinates": [4.90137, 43.44107]}, "properties": {"bright_ti4": "311.13", "scan": "0.42", "track": "0.37", "acq_date": "2026-07-27", "acq_time": "132", "satellite": "N20", "instrument": "VIIRS", "confidence": "n", "version": "2.0NRT", "bright_ti5": "291.33", "frp": "1.43", "daynight": "N"}}, {"type": "Feature", "geometry": {"type": "Point", "coordinates": [4.89626, 43.44175]}, "properties": {"bright_ti4": "323.11", "scan": "0.42", "track": "0.37", "acq_date": "2026-07-27", "acq_time": "132", "satellite": "N20", "instrument": "VIIRS", "confidence": "n", "version": "2.0NRT", "bright_ti5": "291.2", "frp": "2.44", "daynight": "N"}}, {"type": "Feature", "geometry": {"type": "Point", "coordinates": [4.8809, 43.44377]}, "properties": {"bright_ti4": "309.06", "scan": "0.42", "track": "0.37", "acq_date": "2026-07-27", "acq_time": "132", "satellite": "N20", "instrument": "VIIRS", "confidence": "n", "version": "2.0NRT", "bright_ti5": "293.3", "frp": "1.07", "daynight": "N"}}, {"type": "Feature", "geometry": {"type": "Point", "coordinates": [4.90223, 43.44448]}, "properties": {"bright_ti4": "304.1", "scan": "0.42", "track": "0.37", "acq_date": "2026-07-27", "acq_time": "132", "satellite": "N20", "instrument": "VIIRS", "confidence": "n", "version": "2.0NRT", "bright_ti5": "291.4", "frp": "1.43", "daynight": "N"}}, {"type": "Feature", "geometry": {"type": "Point", "coordinates": [4.89712, 43.44515]}, "properties": {"bright_ti4": "329.61", "scan": "0.42", "track": "0.37", "acq_date": "2026-07-27", "acq_time": "132", "satellite": "N20", "instrument": "VIIRS", "confidence": "n", "version": "2.0NRT", "bright_ti5": "292.62", "frp": "2.44", "daynight": "N"}}, {"type": "Feature", "geometry": {"type": "Point", "coordinates": [4.89797, 43.44857]}, "properties": {"bright_ti4": "312.37", "scan": "0.42", "track": "0.37", "acq_date": "2026-07-27", "acq_time": "132", "satellite": "N20", "instrument": "VIIRS", "confidence": "n", "version": "2.0NRT", "bright_ti5": "291.56", "frp": "1.33", "daynight": "N"}}, {"type": "Feature", "geometry": {"type": "Point", "coordinates": [5.46197, 43.45252]}, "properties": {"bright_ti4": "302.23", "scan": "0.4", "track": "0.37", "acq_date": "2026-07-27", "acq_time": "132", "satellite": "N20", "instrument": "VIIRS", "confidence": "n", "version": "2.0NRT", "bright_ti5": "291.38", "frp": "0.71", "daynight": "N"}}, {"type": "Feature", "geometry": {"type": "Point", "coordinates": [5.46381, 43.453]}, "properties": {"bright_ti4": "303.47", "scan": "0.4", "track": "0.37", "acq_date": "2026-07-27", "acq_time": "132", "satellite": "N20", "instrument": "VIIRS", "confidence": "n", "version": "2.0NRT", "bright_ti5": "291.72", "frp": "0.62", "daynight": "N"}}, {"type": "Feature", "geometry": {"type": "Point", "coordinates": [6.0584, 43.47328]}, "properties": {"bright_ti4": "313.06", "scan": "0.4", "track": "0.37", "acq_date": "2026-07-27", "acq_time": "132", "satellite": "N20", "instrument": "VIIRS", "confidence": "n", "version": "2.0NRT", "bright_ti5": "290.83", "frp": "1.12", "daynight": "N"}}, {"type": "Feature", "geometry": {"type": "Point", "coordinates": [6.02846, 43.52107]}, "properties": {"bright_ti4": "308.42", "scan": "0.4", "track": "0.37", "acq_date": "2026-07-27", "acq_time": "132", "satellite": "N20", "instrument": "VIIRS", "confidence": "n", "version": "2.0NRT", "bright_ti5": "291.42", "frp": "1.18", "daynight": "N"}}, {"type": "Feature", "geometry": {"type": "Point", "coordinates": [5.98528, 43.54792]}, "properties": {"bright_ti4": "303.59", "scan": "0.4", "track": "0.37", "acq_date": "2026-07-27", "acq_time": "132", "satellite": "N20", "instrument": "VIIRS", "confidence": "n", "version": "2.0NRT", "bright_ti5": "290.18", "frp": "0.57", "daynight": "N"}}, {"type": "Feature", "geometry": {"type": "Point", "coordinates": [7.37584, 43.79512]}, "properties": {"bright_ti4": "305.58", "scan": "0.38", "track": "0.36", "acq_date": "2026-07-27", "acq_time": "132", "satellite": "N20", "instrument": "VIIRS", "confidence": "n", "version": "2.0NRT", "bright_ti5": "291.21", "frp": "0.62", "daynight": "N"}}, {"type": "Feature", "geometry": {"type": "Point", "coordinates": [-0.81347, 44.73571]}, "properties": {"bright_ti4": "296.27", "scan": "0.48", "track": "0.48", "acq_date": "2026-07-27", "acq_time": "132", "satellite": "N20", "instrument": "VIIRS", "confidence": "n", "version": "2.0NRT", "bright_ti5": "285.1", "frp": "1.52", "daynight": "N"}}, {"type": "Feature", "geometry": {"type": "Point", "coordinates": [-0.88832, 44.77559]}, "properties": {"bright_ti4": "295.98", "scan": "0.49", "track": "0.48", "acq_date": "2026-07-27", "acq_time": "132", "satellite": "N20", "instrument": "VIIRS", "confidence": "n", "version": "2.0NRT", "bright_ti5": "284.94", "frp": "1.21", "daynight": "N"}}, {"type": "Feature", "geometry": {"type": "Point", "coordinates": [-0.88187, 44.77715]}, "properties": {"bright_ti4": "297.62", "scan": "0.49", "track": "0.48", "acq_date": "2026-07-27", "acq_time": "132", "satellite": "N20", "instrument": "VIIRS", "confidence": "n", "version": "2.0NRT", "bright_ti5": "285.05", "frp": "1.16", "daynight": "N"}}, {"type": "Feature", "geometry": {"type": "Point", "coordinates": [-0.88806, 44.77764]}, "properties": {"bright_ti4": "296.51", "scan": "0.49", "track": "0.48", "acq_date": "2026-07-27", "acq_time": "132", "satellite": "N20", "instrument": "VIIRS", "confidence": "n", "version": "2.0NRT", "bright_ti5": "285.05", "frp": "1.79", "daynight": "N"}}, {"type": "Feature", "geometry": {"type": "Point", "coordinates": [-0.98004, 44.87758]}, "properties": {"bright_ti4": "297.18", "scan": "0.49", "track": "0.49", "acq_date": "2026-07-27", "acq_time": "132", "satellite": "N20", "instrument": "VIIRS", "confidence": "n", "version": "2.0NRT", "bright_ti5": "286.65", "frp": "0.98", "daynight": "N"}}, {"type": "Feature", "geometry": {"type": "Point", "coordinates": [-0.89721, 44.88014]}, "properties": {"bright_ti4": "296.55", "scan": "0.49", "track": "0.48", "acq_date": "2026-07-27", "acq_time": "132", "satellite": "N20", "instrument": "VIIRS", "confidence": "n", "version": "2.0NRT", "bright_ti5": "285.2", "frp": "1.11", "daynight": "N"}}, {"type": "Feature", "geometry": {"type": "Point", "coordinates": [-0.896, 44.88251]}, "properties": {"bright_ti4": "296.36", "scan": "0.49", "track": "0.48", "acq_date": "2026-07-27", "acq_time": "132", "satellite": "N20", "instrument": "VIIRS", "confidence": "n", "version": "2.0NRT", "bright_ti5": "284.85", "frp": "0.8", "daynight": "N"}}, {"type": "Feature", "geometry": {"type": "Point", "coordinates": [-0.87526, 44.89452]}, "properties": {"bright_ti4": "296.08", "scan": "0.49", "track": "0.48", "acq_date": "2026-07-27", "acq_time": "132", "satellite": "N20", "instrument": "VIIRS", "confidence": "n", "version": "2.0NRT", "bright_ti5": "285.3", "frp": "0.62", "daynight": "N"}}, {"type": "Feature", "geometry": {"type": "Point", "coordinates": [-0.87455, 44.89899]}, "properties": {"bright_ti4": "297.19", "scan": "0.49", "track": "0.48", "acq_date": "2026-07-27", "acq_time": "132", "satellite": "N20", "instrument": "VIIRS", "confidence": "n", "version": "2.0NRT", "bright_ti5": "285.22", "frp": "0.62", "daynight": "N"}}, {"type": "Feature", "geometry": {"type": "Point", "coordinates": [9.94178, 45.14556]}, "properties": {"bright_ti4": "333.32", "scan": "0.39", "track": "0.36", "acq_date": "2026-07-27", "acq_time": "132", "satellite": "N20", "instrument": "VIIRS", "confidence": "n", "version": "2.0NRT", "bright_ti5": "296.33", "frp": "13.64", "daynight": "N"}}, {"type": "Feature", "geometry": {"type": "Point", "coordinates": [9.46551, 45.68372]}, "properties": {"bright_ti4": "309.19", "scan": "0.39", "track": "0.36", "acq_date": "2026-07-27", "acq_time": "132", "satellite": "N20", "instrument": "VIIRS", "confidence": "n", "version": "2.0NRT", "bright_ti5": "291.95", "frp": "0.88", "daynight": "N"}}, {"type": "Feature", "geometry": {"type": "Point", "coordinates": [2.75315, 47.07424]}, "properties": {"bright_ti4": "305.06", "scan": "0.53", "track": "0.42", "acq_date": "2026-07-27", "acq_time": "132", "satellite": "N20", "instrument": "VIIRS", "confidence": "n", "version": "2.0NRT", "bright_ti5": "286.31", "frp": "3.4", "daynight": "N"}}, {"type": "Feature", "geometry": {"type": "Point", "coordinates": [2.74606, 47.07496]}, "properties": {"bright_ti4": "310.6", "scan": "0.53", "track": "0.42", "acq_date": "2026-07-27", "acq_time": "132", "satellite": "N20", "instrument": "VIIRS", "confidence": "n", "version": "2.0NRT", "bright_ti5": "286.73", "frp": "3.81", "daynight": "N"}}, {"type": "Feature", "geometry": {"type": "Point", "coordinates": [2.75397, 47.07809]}, "properties": {"bright_ti4": "322.99", "scan": "0.53", "track": "0.42", "acq_date": "2026-07-27", "acq_time": "132", "satellite": "N20", "instrument": "VIIRS", "confidence": "n", "version": "2.0NRT", "bright_ti5": "288.62", "frp": "3.4", "daynight": "N"}}, {"type": "Feature", "geometry": {"type": "Point", "coordinates": [2.7469, 47.07882]}, "properties": {"bright_ti4": "331.68", "scan": "0.53", "track": "0.42", "acq_date": "2026-07-27", "acq_time": "132", "satellite": "N20", "instrument": "VIIRS", "confidence": "n", "version": "2.0NRT", "bright_ti5": "288.28", "frp": "3.81", "daynight": "N"}}, {"type": "Feature", "geometry": {"type": "Point", "coordinates": [2.98436, 48.38731]}, "properties": {"bright_ti4": "309.96", "scan": "0.54", "track": "0.42", "acq_date": "2026-07-27", "acq_time": "132", "satellite": "N20", "instrument": "VIIRS", "confidence": "n", "version": "2.0NRT", "bright_ti5": "289.31", "frp": "1.34", "daynight": "N"}}, {"type": "Feature", "geometry": {"type": "Point", "coordinates": [2.97842, 48.38739]}, "properties": {"bright_ti4": "301.49", "scan": "0.54", "track": "0.42", "acq_date": "2026-07-27", "acq_time": "132", "satellite": "N20", "instrument": "VIIRS", "confidence": "n", "version": "2.0NRT", "bright_ti5": "289.09", "frp": "1.65", "daynight": "N"}}, {"type": "Feature", "geometry": {"type": "Point", "coordinates": [-2.95692, 41.19401]}, "properties": {"bright_ti4": "303.98", "scan": "0.57", "track": "0.52", "acq_date": "2026-07-27", "acq_time": "134", "satellite": "N20", "instrument": "VIIRS", "confidence": "n", "version": "2.0NRT", "bright_ti5": "283.81", "frp": "1.2", "daynight": "N"}}, {"type": "Feature", "geometry": {"type": "Point", "coordinates": [2.20254, 48.66311]}, "properties": {"bright_ti4": "305.67", "scan": "0.51", "track": "0.66", "acq_date": "2026-07-27", "acq_time": "310", "satellite": "N20", "instrument": "VIIRS", "confidence": "n", "version": "2.0NRT", "bright_ti5": "283.7", "frp": "1.62", "daynight": "N"}}, {"type": "Feature", "geometry": {"type": "Point", "coordinates": [2.20516, 48.66446]}, "properties": {"bright_ti4": "315.42", "scan": "0.51", "track": "0.66", "acq_date": "2026-07-27", "acq_time": "310", "satellite": "N20", "instrument": "VIIRS", "confidence": "n", "version": "2.0NRT", "bright_ti5": "283.68", "frp": "1.36", "daynight": "N"}}, {"type": "Feature", "geometry": {"type": "Point", "coordinates": [1.75811, 48.9814]}, "properties": {"bright_ti4": "295.28", "scan": "0.48", "track": "0.65", "acq_date": "2026-07-27", "acq_time": "310", "satellite": "N20", "instrument": "VIIRS", "confidence": "n", "version": "2.0NRT", "bright_ti5": "284.94", "frp": "0.81", "daynight": "N"}}, {"type": "Feature", "geometry": {"type": "Point", "coordinates": [1.7618, 48.98686]}, "properties": {"bright_ti4": "302.55", "scan": "0.48", "track": "0.65", "acq_date": "2026-07-27", "acq_time": "310", "satellite": "N20", "instrument": "VIIRS", "confidence": "n", "version": "2.0NRT", "bright_ti5": "284.32", "frp": "0.54", "daynight": "N"}}, {"type": "Feature", "geometry": {"type": "Point", "coordinates": [0.53504, 49.47742]}, "properties": {"bright_ti4": "298.38", "scan": "0.41", "track": "0.61", "acq_date": "2026-07-27", "acq_time": "310", "satellite": "N20", "instrument": "VIIRS", "confidence": "n", "version": "2.0NRT", "bright_ti5": "285.79", "frp": "0.72", "daynight": "N"}}, {"type": "Feature", "geometry": {"type": "Point", "coordinates": [7.01081, 51.299]}, "properties": {"bright_ti4": "297.42", "scan": "0.63", "track": "0.72", "acq_date": "2026-07-27", "acq_time": "310", "satellite": "N20", "instrument": "VIIRS", "confidence": "n", "version": "2.0NRT", "bright_ti5": "282.36", "frp": "0.99", "daynight": "N"}}, {"type": "Feature", "geometry": {"type": "Point", "coordinates": [7.01158, 51.29921]}, "properties": {"bright_ti4": "297.2", "scan": "0.63", "track": "0.72", "acq_date": "2026-07-27", "acq_time": "310", "satellite": "N20", "instrument": "VIIRS", "confidence": "n", "version": "2.0NRT", "bright_ti5": "282.45", "frp": "0.54", "daynight": "N"}}, {"type": "Feature", "geometry": {"type": "Point", "coordinates": [-3.39351, 51.39998]}, "properties": {"bright_ti4": "302.6", "scan": "0.5", "track": "0.49", "acq_date": "2026-07-27", "acq_time": "310", "satellite": "N20", "instrument": "VIIRS", "confidence": "n", "version": "2.0NRT", "bright_ti5": "283.71", "frp": "0.63", "daynight": "N"}}, {"type": "Feature", "geometry": {"type": "Point", "coordinates": [6.73565, 51.49595]}, "properties": {"bright_ti4": "302.27", "scan": "0.6", "track": "0.71", "acq_date": "2026-07-27", "acq_time": "310", "satellite": "N20", "instrument": "VIIRS", "confidence": "n", "version": "2.0NRT", "bright_ti5": "278.85", "frp": "2.55", "daynight": "N"}}, {"type": "Feature", "geometry": {"type": "Point", "coordinates": [2.75779, 47.07647]}, "properties": {"bright_ti4": "296.02", "scan": "0.61", "track": "0.71", "acq_date": "2026-07-27", "acq_time": "313", "satellite": "N20", "instrument": "VIIRS", "confidence": "n", "version": "2.0NRT", "bright_ti5": "284.98", "frp": "5.89", "daynight": "N"}}, {"type": "Feature", "geometry": {"type": "Point", "coordinates": [2.75508, 47.07826]}, "properties": {"bright_ti4": "332.79", "scan": "0.61", "track": "0.71", "acq_date": "2026-07-27", "acq_time": "313", "satellite": "N20", "instrument": "VIIRS", "confidence": "n", "version": "2.0NRT", "bright_ti5": "286.1", "frp": "8.64", "daynight": "N"}}, {"type": "Feature", "geometry": {"type": "Point", "coordinates": [2.75072, 47.07892]}, "properties": {"bright_ti4": "355.75", "scan": "0.61", "track": "0.71", "acq_date": "2026-07-27", "acq_time": "313", "satellite": "N20", "instrument": "VIIRS", "confidence": "n", "version": "2.0NRT", "bright_ti5": "285.34", "frp": "5.89", "daynight": "N"}}, {"type": "Feature", "geometry": {"type": "Point", "coordinates": [2.74801, 47.08076]}, "properties": {"bright_ti4": "327.69", "scan": "0.61", "track": "0.71", "acq_date": "2026-07-27", "acq_time": "313", "satellite": "N20", "instrument": "VIIRS", "confidence": "n", "version": "2.0NRT", "bright_ti5": "283.36", "frp": "7.3", "daynight": "N"}}, {"type": "Feature", "geometry": {"type": "Point", "coordinates": [-2.05062, 47.31905]}, "properties": {"bright_ti4": "295.07", "scan": "0.38", "track": "0.58", "acq_date": "2026-07-27", "acq_time": "313", "satellite": "N20", "instrument": "VIIRS", "confidence": "n", "version": "2.0NRT", "bright_ti5": "283.82", "frp": "0.3", "daynight": "N"}}, {"type": "Feature", "geometry": {"type": "Point", "coordinates": [2.29216, 51.03547]}, "properties": {"bright_ti4": "327.41", "scan": "0.55", "track": "0.68", "acq_date": "2026-07-27", "acq_time": "1117", "satellite": "N20", "instrument": "VIIRS", "confidence": "n", "version": "2.0NRT", "bright_ti5": "295.94", "frp": "4.42", "daynight": "D"}}, {"type": "Feature", "geometry": {"type": "Point", "coordinates": [2.29749, 51.04289]}, "properties": {"bright_ti4": "367", "scan": "0.55", "track": "0.68", "acq_date": "2026-07-27", "acq_time": "1117", "satellite": "N20", "instrument": "VIIRS", "confidence": "h", "version": "2.0NRT", "bright_ti5": "296.99", "frp": "7.19", "daynight": "D"}}, {"type": "Feature", "geometry": {"type": "Point", "coordinates": [2.3044, 51.04537]}, "properties": {"bright_ti4": "333.78", "scan": "0.55", "track": "0.68", "acq_date": "2026-07-27", "acq_time": "1117", "satellite": "N20", "instrument": "VIIRS", "confidence": "n", "version": "2.0NRT", "bright_ti5": "293.86", "frp": "7.19", "daynight": "D"}}, {"type": "Feature", "geometry": {"type": "Point", "coordinates": [2.32687, 51.04773]}, "properties": {"bright_ti4": "336.95", "scan": "0.55", "track": "0.68", "acq_date": "2026-07-27", "acq_time": "1117", "satellite": "N20", "instrument": "VIIRS", "confidence": "n", "version": "2.0NRT", "bright_ti5": "295.43", "frp": "5.7", "daynight": "D"}}]}